BEIJING 1               
1 28890U 05043A   20120.88907138  .00000037  00000-0  16688-4 0  9991
2 28890  98.0226 251.1072 0016615  95.5285 264.7811 14.61287854773425
HJ-1A                   
1 33320U 08041A   20120.83139287  .00000076  00000-0  17866-4 0  9995
2 33320  97.7916 174.4676 0025772 227.4370 132.4656 14.77060723627420
HJ-1B                   
1 33321U 08041B   20120.83226782  .00000101  00000-0  21350-4 0  9995
2 33321  97.7994 176.7070 0033363 255.9238 103.8251 14.77221578627424
YAOGAN 4                
1 33446U 08061A   20120.77075685  .00000079  00000-0  18099-4 0  9992
2 33446  97.7222  78.4056 0017178 134.4297 225.8323 14.77023172614645
DEIMOS-1                
1 35681U 09041A   20120.88414107 -.00000017  00000-0  47846-5 0  9998
2 35681  97.8184 356.3195 0001453 150.2125 209.9160 14.71830954577247
UK-DMC 2                
1 35683U 09041C   20120.88862803  .00000078  00000-0  20050-4 0  9993
2 35683  97.7043 326.0587 0001026  87.6907 272.4426 14.71143351577033
RISAT 1                 
1 38248U 12017A   20120.74428448  .00000241  00000-0  18716-4 0  9996
2 38248  97.5678 130.5657 0005646  62.6792 297.5011 15.10053863441285
DMC3-FM1                
1 40715U 15032A   20120.90756055  .00000033  00000-0  12714-4 0  9995
2 40715  97.9386  15.6237 0016527  24.3642 335.8343 14.73686576258509
DMC3-FM2                
1 40716U 15032B   20120.92968831  .00000037  00000-0  13228-4 0  9990
2 40716  97.9411  15.9865 0013909  33.6223 326.5854 14.73692009258511
DMC3-FM3                
1 40717U 15032C   20120.95248790  .00000037  00000-0  13333-4 0  9996
2 40717  97.9420  16.7239 0017449  25.4739 334.7321 14.73698058258510
